start=new Date('2023-04-18T00:00:00.000Z').valueOf();
sats=[{"DECAY_DATE":null,"RA_OF_ASC_NODE":"158.2271","OBJECT_NAME":"STARLINK-2227","FILE":"3889332","GP_ID":"230240503","OBJECT_TYPE":"PAYLOAD","SITE":"AFETR","REF_FRAME":"TEME","NORAD_CAT_ID":"48575","MEAN_ANOMALY":"299.0553","ECCENTRICITY":"0.00015460","PERIAPSIS":"546.095","TIME_SYSTEM":"UTC","COUNTRY_CODE":"US","MEAN_ELEMENT_THEORY":"SGP4","OBJECT_ID":"2021-041Y","BSTAR":"0.00172930000000","PERIOD":"95.591","RCS_SIZE":"LARGE","LAUNCH_DATE":"2021-05-15","INCLINATION":"53.0537","MEAN_MOTION_DDOT":"0.0000000000000","EPOCH":"2023-04-17T09:57:33.456384","ARG_OF_PERICENTER":"61.0591","REV_AT_EPOCH":"10686","EPHEMERIS_TYPE":"0","SEMIMAJOR_AXIS":"6925.301","CLASSIFICATION_TYPE":"U","ELEMENT_SET_NO":"999","CENTER_NAME":"EARTH","APOAPSIS":"548.237","TLE_LINE2":"2 48575  53.0537 158.2271 0001546  61.0591 299.0553 15.06415517106867","MEAN_MOTION":"15.06415517","MEAN_MOTION_DOT":"0.00025581","TLE_LINE1":"1 48575U 21041Y   23107.41497056  .00025581  00000-0  17293-2 0  9991"},{"PERIOD":"95.593","RCS_SIZE":"LARGE","EPOCH":"2023-04-17T21:06:58.275360","MEAN_MOTION_DDOT":"0.0000000000000","LAUNCH_DATE":"2021-05-15","INCLINATION":"53.0527","ARG_OF_PERICENTER":"81.8945","REV_AT_EPOCH":"10627","SEMIMAJOR_AXIS":"6925.381","EPHEMERIS_TYPE":"0","CLASSIFICATION_TYPE":"U","ELEMENT_SET_NO":"999","CENTER_NAME":"EARTH","APOAPSIS":"548.268","TLE_LINE2":"2 48576  53.0527 170.8223 0001475  81.8945 278.2212 15.06389255106273","MEAN_MOTION":"15.06389255","MEAN_MOTION_DOT":"0.00022807","TLE_LINE1":"1 48576U 21041Z   23107.87984115  .00022807  00000-0  15455-2 0  9995","DECAY_DATE":null,"RA_OF_ASC_NODE":"170.8223","OBJECT_NAME":"STARLINK-2228","GP_ID":"230263796","FILE":"3889391","SITE":"AFETR","OBJECT_TYPE":"PAYLOAD","NORAD_CAT_ID":"48576","REF_FRAME":"TEME","MEAN_ANOMALY":"278.2212","ECCENTRICITY":"0.00014750","PERIAPSIS":"546.225","MEAN_ELEMENT_THEORY":"SGP4","TIME_SYSTEM":"UTC","COUNTRY_CODE":"US","BSTAR":"0.00154550000000","OBJECT_ID":"2021-041Z"},{"ELEMENT_SET_NO":"999","CLASSIFICATION_TYPE":"U","SEMIMAJOR_AXIS":"6925.320","EPHEMERIS_TYPE":"0","ARG_OF_PERICENTER":"74.0819","REV_AT_EPOCH":"10587","MEAN_MOTION_DDOT":"0.0000000000000","EPOCH":"2023-04-17T14:54:42.754752","INCLINATION":"53.0530","LAUNCH_DATE":"2021-05-15","PERIOD":"95.592","RCS_SIZE":"LARGE","TLE_LINE1":"1 48577U 21041AA  23107.62132818  .00040613  00000-0  27291-2 0  9990","MEAN_MOTION_DOT":"0.00040613","MEAN_MOTION":"15.06409192","TLE_LINE2":"2 48577  53.0530 196.9833 0001249  74.0819 286.0307 15.06409192105877","APOAPSIS":"548.050","CENTER_NAME":"EARTH","NORAD_CAT_ID":"48577","REF_FRAME":"TEME","SITE":"AFETR","OBJECT_TYPE":"PAYLOAD","GP_ID":"230263046","FILE":"3889391","OBJECT_NAME":"STARLINK-2231","RA_OF_ASC_NODE":"196.9833","DECAY_DATE":null,"BSTAR":"0.00272910000000","OBJECT_ID":"2021-041AA","MEAN_ELEMENT_THEORY":"SGP4","TIME_SYSTEM":"UTC","COUNTRY_CODE":"US","ECCENTRICITY":"0.00012490","PERIAPSIS":"546.320","MEAN_ANOMALY":"286.0307"},{"COUNTRY_CODE":"US","TIME_SYSTEM":"UTC","MEAN_ELEMENT_THEORY":"SGP4","OBJECT_ID":"2021-041AB","BSTAR":"0.00269870000000","MEAN_ANOMALY":"261.7914","PERIAPSIS":"546.282","ECCENTRICITY":"0.00012050","FILE":"3889391","GP_ID":"230263296","OBJECT_NAME":"STARLINK-2232","REF_FRAME":"TEME","NORAD_CAT_ID":"48578","OBJECT_TYPE":"PAYLOAD","SITE":"AFETR","DECAY_DATE":null,"RA_OF_ASC_NODE":"197.3609","MEAN_MOTION_DOT":"0.00040180","TLE_LINE1":"1 48578U 21041AB  23107.65089380  .00040180  00000-0  26987-2 0  9999","CENTER_NAME":"EARTH","MEAN_MOTION":"15.06431570","TLE_LINE2":"2 48578  53.0525 197.3609 0001205  98.3212 261.7914 15.06431570105875","APOAPSIS":"547.951","EPHEMERIS_TYPE":"0","SEMIMAJOR_AXIS":"6925.252","ELEMENT_SET_NO":"999","CLASSIFICATION_TYPE":"U","PERIOD":"95.590","RCS_SIZE":"LARGE","REV_AT_EPOCH":"10587","ARG_OF_PERICENTER":"98.3212","INCLINATION":"53.0525","LAUNCH_DATE":"2021-05-15","EPOCH":"2023-04-17T15:37:17.224320","MEAN_MOTION_DDOT":"0.0000000000000"},{"CLASSIFICATION_TYPE":"U","ELEMENT_SET_NO":"999","EPHEMERIS_TYPE":"0","SEMIMAJOR_AXIS":"6925.394","INCLINATION":"53.0529","LAUNCH_DATE":"2021-05-15","EPOCH":"2023-04-17T16:14:21.437664","MEAN_MOTION_DDOT":"0.0000000000000","ARG_OF_PERICENTER":"88.2401","REV_AT_EPOCH":"10588","PERIOD":"95.593","RCS_SIZE":"LARGE","TLE_LINE1":"1 48579U 21041AC  23107.67663701  .00039360  00000-0  26476-2 0  9998","MEAN_MOTION_DOT":"0.00039360","APOAPSIS":"548.204","TLE_LINE2":"2 48579  53.0529 196.7327 0001364  88.2401 271.8744 15.06385148105887","MEAN_MOTION":"15.06385148","CENTER_NAME":"EARTH","OBJECT_TYPE":"PAYLOAD","SITE":"AFETR","REF_FRAME":"TEME","NORAD_CAT_ID":"48579","OBJECT_NAME":"STARLINK-2233","FILE":"3889391","GP_ID":"230263547","RA_OF_ASC_NODE":"196.7327","DECAY_DATE":null,"OBJECT_ID":"2021-041AC","BSTAR":"0.00264760000000","TIME_SYSTEM":"UTC","COUNTRY_CODE":"US","MEAN_ELEMENT_THEORY":"SGP4","PERIAPSIS":"546.314","ECCENTRICITY":"0.00013640","MEAN_ANOMALY":"271.8744"},{"RA_OF_ASC_NODE":"171.8832","DECAY_DATE":null,"FILE":"3889391","GP_ID":"230264297","OBJECT_NAME":"STARLINK-2234","NORAD_CAT_ID":"48580","REF_FRAME":"TEME","OBJECT_TYPE":"PAYLOAD","SITE":"AFETR","MEAN_ANOMALY":"293.0741","PERIAPSIS":"546.155","ECCENTRICITY":"0.00015120","MEAN_ELEMENT_THEORY":"SGP4","COUNTRY_CODE":"US","TIME_SYSTEM":"UTC","BSTAR":"0.00199530000000","OBJECT_ID":"2021-041AD","RCS_SIZE":"LARGE","PERIOD":"95.592","REV_AT_EPOCH":"10623","ARG_OF_PERICENTER":"67.0408","MEAN_MOTION_DDOT":"0.0000000000000","EPOCH":"2023-04-17T15:25:53.708736","LAUNCH_DATE":"2021-05-15","INCLINATION":"53.0534","SEMIMAJOR_AXIS":"6925.338","EPHEMERIS_TYPE":"0","ELEMENT_SET_NO":"999","CLASSIFICATION_TYPE":"U","CENTER_NAME":"EARTH","MEAN_MOTION":"15.06403572","TLE_LINE2":"2 48580  53.0534 171.8832 0001512  67.0408 293.0741 15.06403572106232","APOAPSIS":"548.250","MEAN_MOTION_DOT":"0.00029567","TLE_LINE1":"1 48580U 21041AD  23107.64298274  .00029567  00000-0  19953-2 0  9996"},{"BSTAR":"0.00157130000000","OBJECT_ID":"2021-041AE","MEAN_ELEMENT_THEORY":"SGP4","TIME_SYSTEM":"UTC","COUNTRY_CODE":"US","PERIAPSIS":"546.497","ECCENTRICITY":"0.00010590","MEAN_ANOMALY":"252.3486","SITE":"AFETR","OBJECT_TYPE":"PAYLOAD","NORAD_CAT_ID":"48581","REF_FRAME":"TEME","OBJECT_NAME":"STARLINK-2235","FILE":"3889391","GP_ID":"230262546","RA_OF_ASC_NODE":"160.8772","DECAY_DATE":null,"TLE_LINE1":"1 48581U 21041AE  23107.86971805  .00023197  00000-0  15713-2 0  9992","MEAN_MOTION_DOT":"0.00023197","APOAPSIS":"547.964","TLE_LINE2":"2 48581  53.0523 160.8772 0001059 107.7618 252.3486 15.06394391106415","MEAN_MOTION":"15.06394391","CENTER_NAME":"EARTH","CLASSIFICATION_TYPE":"U","ELEMENT_SET_NO":"999","SEMIMAJOR_AXIS":"6925.366","EPHEMERIS_TYPE":"0","MEAN_MOTION_DDOT":"0.0000000000000","EPOCH":"2023-04-17T20:52:23.639520","INCLINATION":"53.0523","LAUNCH_DATE":"2021-05-15","ARG_OF_PERICENTER":"107.7618","REV_AT_EPOCH":"10641","PERIOD":"95.592","RCS_SIZE":"LARGE"},{"MEAN_ANOMALY":"252.2275","PERIAPSIS":"546.320","ECCENTRICITY":"0.00013180","COUNTRY_CODE":"US","TIME_SYSTEM":"UTC","MEAN_ELEMENT_THEORY":"SGP4","OBJECT_ID":"2021-041AF","BSTAR":"0.00125460000000","RA_OF_ASC_NODE":"161.1142","DECAY_DATE":null,"OBJECT_NAME":"STARLINK-2236","GP_ID":"230262796","FILE":"3889391","OBJECT_TYPE":"PAYLOAD","SITE":"AFETR","REF_FRAME":"TEME","NORAD_CAT_ID":"48582","CENTER_NAME":"EARTH","TLE_LINE2":"2 48582  53.0527 161.1142 0001318 107.8858 252.2275 15.06393654106405","APOAPSIS":"548.146","MEAN_MOTION":"15.06393654","MEAN_MOTION_DOT":"0.00018452","TLE_LINE1":"1 48582U 21041AF  23107.85128265  .00018452  00000-0  12546-2 0  9995","RCS_SIZE":"LARGE","PERIOD":"95.593","LAUNCH_DATE":"2021-05-15","INCLINATION":"53.0527","MEAN_MOTION_DDOT":"0.0000000000000","EPOCH":"2023-04-17T20:25:50.820960","REV_AT_EPOCH":"10640","ARG_OF_PERICENTER":"107.8858","EPHEMERIS_TYPE":"0","SEMIMAJOR_AXIS":"6925.368","CLASSIFICATION_TYPE":"U","ELEMENT_SET_NO":"999"},{"SITE":"AFETR","OBJECT_TYPE":"PAYLOAD","NORAD_CAT_ID":"48583","REF_FRAME":"TEME","OBJECT_NAME":"STARLINK-2237","GP_ID":"230264048","FILE":"3889391","DECAY_DATE":null,"RA_OF_ASC_NODE":"206.8230","BSTAR":"0.00269390000000","OBJECT_ID":"2021-041AG","MEAN_ELEMENT_THEORY":"SGP4","TIME_SYSTEM":"UTC","COUNTRY_CODE":"US","PERIAPSIS":"546.086","ECCENTRICITY":"0.00013870","MEAN_ANOMALY":"269.9522","CLASSIFICATION_TYPE":"U","ELEMENT_SET_NO":"999","SEMIMAJOR_AXIS":"6925.182","EPHEMERIS_TYPE":"0","EPOCH":"2023-04-17T15:46:29.660736","MEAN_MOTION_DDOT":"0.0000000000000","LAUNCH_DATE":"2021-05-15","INCLINATION":"53.0537","ARG_OF_PERICENTER":"90.1626","REV_AT_EPOCH":"10574","PERIOD":"95.589","RCS_SIZE":"LARGE","TLE_LINE1":"1 48583U 21041AG  23107.65728774  .00040133  00000-0  26939-2 0  9997","MEAN_MOTION_DOT":"0.00040133","TLE_LINE2":"2 48583  53.0537 206.8230 0001387  90.1626 269.9522 15.06454453105746","APOAPSIS":"548.007","MEAN_MOTION":"15.06454453","CENTER_NAME":"EARTH"},{"SITE":"AFETR","OBJECT_TYPE":"PAYLOAD","REF_FRAME":"TEME","NORAD_CAT_ID":"48584","OBJECT_NAME":"STARLINK-2238","GP_ID":"230263797","FILE":"3889391","RA_OF_ASC_NODE":"206.6396","DECAY_DATE":null,"OBJECT_ID":"2021-041AH","BSTAR":"0.00299090000000","COUNTRY_CODE":"US","TIME_SYSTEM":"UTC","MEAN_ELEMENT_THEORY":"SGP4","ECCENTRICITY":"0.00015660","PERIAPSIS":"546.129","MEAN_ANOMALY":"294.9622","CLASSIFICATION_TYPE":"U","ELEMENT_SET_NO":"999","EPHEMERIS_TYPE":"0","SEMIMAJOR_AXIS":"6925.349","LAUNCH_DATE":"2021-05-15","INCLINATION":"53.0536","MEAN_MOTION_DDOT":"0.0000000000000","EPOCH":"2023-04-17T16:44:52.816128","ARG_OF_PERICENTER":"65.1530","REV_AT_EPOCH":"10574","PERIOD":"95.592","RCS_SIZE":"LARGE","TLE_LINE1":"1 48584U 21041AH  23107.69783352  .00044550  00000-0  29909-2 0  9992","MEAN_MOTION_DOT":"0.00044550","TLE_LINE2":"2 48584  53.0536 206.6396 0001566  65.1530 294.9622 15.06399869105740","APOAPSIS":"548.298","MEAN_MOTION":"15.06399869","CENTER_NAME":"EARTH"}];
